{
  "type": "FeatureCollection",
  "features": [
    {
      "type": "Feature",
      "properties": {
        "norad_id": 43823,
        "name": "GEO-KOMPSAT-2A",
        "group": "weather",
        "lat": -0.03290102477490451,
        "lon": -43.47085145583904,
        "alt_km": 35787.421694169454,
        "timestamp": "2025-12-06T07:31:39.887923+00:00",
        "meta_object_name": "GEO-KOMPSAT-2A",
        "meta_object_id": "2018-100A",
        "meta_epoch": "2025-12-05T05:44:49.515072",
        "meta_mean_motion": 1.00271967,
        "meta_eccentricity": 4.286e-05,
        "meta_inclination": 0.0604,
        "meta_ra_of_asc_node": 120.2174,
        "meta_arg_of_pericenter": 62.8898,
        "meta_mean_anomaly": 105.6625,
        "meta_ephemeris_type": 0,
        "meta_classification_type": "U",
        "meta_norad_cat_id": 43823,
        "meta_element_set_no": 999,
        "meta_rev_at_epoch": 2568,
        "meta_bstar": 0,
        "meta_mean_motion_dot": -3.32e-06,
        "meta_mean_motion_ddot": 0,
        "tle_line1": "1 43823U 18100A   25339.23946198 -.00000332  00000+0  00000+0 0  9991",
        "tle_line2": "2 43823   0.0604 120.2174 0000428  62.8898 105.6625  1.00271967 25683"
      },
      "geometry": {
        "type": "Point",
        "coordinates": [
          -43.47085145583904,
          -0.03290102477490451
        ]
      }
    },
    {
      "type": "Feature",
      "properties": {
        "norad_id": 44387,
        "name": "METEOR-M2 2",
        "group": "weather",
        "lat": -23.972212836915695,
        "lon": 135.97026901706099,
        "alt_km": 815.8349722428202,
        "timestamp": "2025-12-06T07:31:39.887935+00:00",
        "meta_object_name": "METEOR-M2 2",
        "meta_object_id": "2019-038A",
        "meta_epoch": "2025-12-05T06:58:05.219616",
        "meta_mean_motion": 14.24286605,
        "meta_eccentricity": 9.798e-05,
        "meta_inclination": 98.8965,
        "meta_ra_of_asc_node": 318.9283,
        "meta_arg_of_pericenter": 162.8835,
        "meta_mean_anomaly": 197.2377,
        "meta_ephemeris_type": 0,
        "meta_classification_type": "U",
        "meta_norad_cat_id": 44387,
        "meta_element_set_no": 999,
        "meta_rev_at_epoch": 33369,
        "meta_bstar": 0.00015973332,
        "meta_mean_motion_dot": 3.23e-06,
        "meta_mean_motion_ddot": 0,
        "tle_line1": "1 44387U 19038A   25339.29033819  .00000323  00000+0  15973-3 0  9999",
        "tle_line2": "2 44387  98.8965 318.9283 0000979 162.8835 197.2377 14.24286605333693"
      },
      "geometry": {
        "type": "Point",
        "coordinates": [
          135.97026901706099,
          -23.972212836915695
        ]
      }
    },
    {
      "type": "Feature",
      "properties": {
        "norad_id": 47719,
        "name": "ARKTIKA-M 1",
        "group": "weather",
        "lat": 63.05867560725235,
        "lon": 168.82853333370855,
        "alt_km": 39206.190278617185,
        "timestamp": "2025-12-06T07:31:39.887948+00:00",
        "meta_object_name": "ARKTIKA-M 1",
        "meta_object_id": "2021-016A",
        "meta_epoch": "2025-12-01T02:41:41.634816",
        "meta_mean_motion": 2.00613156,
        "meta_eccentricity": 0.71974708,
        "meta_inclination": 63.1756,
        "meta_ra_of_asc_node": 85.6045,
        "meta_arg_of_pericenter": 269.084,
        "meta_mean_anomaly": 15.7076,
        "meta_ephemeris_type": 0,
        "meta_classification_type": "U",
        "meta_norad_cat_id": 47719,
        "meta_element_set_no": 999,
        "meta_rev_at_epoch": 3481,
        "meta_bstar": 0,
        "meta_mean_motion_dot": -1.2e-07,
        "meta_mean_motion_ddot": 0,
        "tle_line1": "1 47719U 21016A   25335.11228744 -.00000012  00000+0  00000+0 0  9997",
        "tle_line2": "2 47719  63.1756  85.6045 7197470 269.0840  15.7076  2.00613156 34816"
      },
      "geometry": {
        "type": "Point",
        "coordinates": [
          168.82853333370855,
          63.05867560725235
        ]
      }
    },
    {
      "type": "Feature",
      "properties": {
        "norad_id": 49008,
        "name": "FENGYUN 3E",
        "group": "weather",
        "lat": -80.13345125064221,
        "lon": 98.62763185642692,
        "alt_km": 832.7474815201595,
        "timestamp": "2025-12-06T07:31:39.887962+00:00",
        "meta_object_name": "FENGYUN 3E",
        "meta_object_id": "2021-062A",
        "meta_epoch": "2025-12-05T06:36:14.482368",
        "meta_mean_motion": 14.1987851,
        "meta_eccentricity": 6.796e-05,
        "meta_inclination": 98.7476,
        "meta_ra_of_asc_node": 339.8849,
        "meta_arg_of_pericenter": 314.3589,
        "meta_mean_anomaly": 45.7532,
        "meta_ephemeris_type": 0,
        "meta_classification_type": "U",
        "meta_norad_cat_id": 49008,
        "meta_element_set_no": 999,
        "meta_rev_at_epoch": 22906,
        "meta_bstar": 5.4351059e-05,
        "meta_mean_motion_dot": 7.1e-07,
        "meta_mean_motion_ddot": 0,
        "tle_line1": "1 49008U 21062A   25339.27516762  .00000071  00000+0  54351-4 0  9999",
        "tle_line2": "2 49008  98.7476 339.8849 0000679 314.3589  45.7532 14.19878510229062"
      },
      "geometry": {
        "type": "Point",
        "coordinates": [
          98.62763185642692,
          -80.13345125064221
        ]
      }
    },
    {
      "type": "Feature",
      "properties": {
        "norad_id": 51850,
        "name": "GOES 18",
        "group": "weather",
        "lat": 0.0041231442581403585,
        "lon": 51.26481627323698,
        "alt_km": 35787.94847751648,
        "timestamp": "2025-12-06T07:31:39.887974+00:00",
        "meta_object_name": "GOES 18",
        "meta_object_id": "2022-021A",
        "meta_epoch": "2025-12-05T06:11:46.930848",
        "meta_mean_motion": 1.00271222,
        "meta_eccentricity": 8.44e-05,
        "meta_inclination": 0.0092,
        "meta_ra_of_asc_node": 79.494,
        "meta_arg_of_pericenter": 211.3925,
        "meta_mean_anomaly": 99.3729,
        "meta_ephemeris_type": 0,
        "meta_classification_type": "U",
        "meta_norad_cat_id": 51850,
        "meta_element_set_no": 999,
        "meta_rev_at_epoch": 464,
        "meta_bstar": 0,
        "meta_mean_motion_dot": 1.08e-06,
        "meta_mean_motion_ddot": 0,
        "tle_line1": "1 51850U 22021A   25339.25818207  .00000108  00000+0  00000+0 0  9998",
        "tle_line2": "2 51850   0.0092  79.4940 0000844 211.3925  99.3729  1.00271222  4644"
      },
      "geometry": {
        "type": "Point",
        "coordinates": [
          51.26481627323698,
          0.0041231442581403585
        ]
      }
    },
    {
      "type": "Feature",
      "properties": {
        "norad_id": 54234,
        "name": "NOAA 21 (JPSS-2)",
        "group": "weather",
        "lat": -76.72559983757282,
        "lon": -42.571134986764775,
        "alt_km": 835.4038105130694,
        "timestamp": "2025-12-06T07:31:39.887990+00:00",
        "meta_object_name": "NOAA 21 (JPSS-2)",
        "meta_object_id": "2022-150A",
        "meta_epoch": "2025-12-05T06:31:44.694048",
        "meta_mean_motion": 14.1952099,
        "meta_eccentricity": 0.00024819,
        "meta_inclination": 98.7451,
        "meta_ra_of_asc_node": 275.6739,
        "meta_arg_of_pericenter": 52.0618,
        "meta_mean_anomaly": 308.0782,
        "meta_ephemeris_type": 0,
        "meta_classification_type": "U",
        "meta_norad_cat_id": 54234,
        "meta_element_set_no": 999,
        "meta_rev_at_epoch": 15903,
        "meta_bstar": 0.00011940347,
        "meta_mean_motion_dot": 2.08e-06,
        "meta_mean_motion_ddot": 0,
        "tle_line1": "1 54234U 22150A   25339.27204507  .00000208  00000+0  11940-3 0  9994",
        "tle_line2": "2 54234  98.7451 275.6739 0002481  52.0618 308.0782 14.19520990159036"
      },
      "geometry": {
        "type": "Point",
        "coordinates": [
          -42.571134986764775,
          -76.72559983757282
        ]
      }
    },
    {
      "type": "Feature",
      "properties": {
        "norad_id": 54743,
        "name": "METEOSAT-12 (MTG-I1)",
        "group": "weather",
        "lat": 0.2600584904672023,
        "lon": -172.01368210507087,
        "alt_km": 35782.21336825145,
        "timestamp": "2025-12-06T07:31:39.888002+00:00",
        "meta_object_name": "METEOSAT-12 (MTG-I1)",
        "meta_object_id": "2022-170C",
        "meta_epoch": "2025-12-05T03:25:25.372128",
        "meta_mean_motion": 1.00273991,
        "meta_eccentricity": 0.00015495,
        "meta_inclination": 0.72,
        "meta_ra_of_asc_node": 30.3357,
        "meta_arg_of_pericenter": 218.7545,
        "meta_mean_anomaly": 236.1973,
        "meta_ephemeris_type": 0,
        "meta_classification_type": "U",
        "meta_norad_cat_id": 54743,
        "meta_element_set_no": 999,
        "meta_rev_at_epoch": 1103,
        "meta_bstar": 0,
        "meta_mean_motion_dot": 5e-08,
        "meta_mean_motion_ddot": 0,
        "tle_line1": "1 54743U 22170C   25339.14265477  .00000005  00000+0  00000+0 0  9996",
        "tle_line2": "2 54743   0.7200  30.3357 0001549 218.7545 236.1973  1.00273991 11034"
      },
      "geometry": {
        "type": "Point",
        "coordinates": [
          -172.01368210507087,
          0.2600584904672023
        ]
      }
    }
  ]
}